GPS BIIA-23 (PRN 18)    
1 22877U 93068A   19032.97837757 -.00000047  00000-0  00000+0 0  9991
2 22877  54.5877  74.0822 0147798  78.5525 285.9378  2.00556083185167
GPS BIIR-2  (PRN 13)    
1 24876U 97035A   19034.36672828  .00000035  00000-0  00000+0 0  9997
2 24876  55.4692 203.7042 0035079  78.0535 282.3186  2.00564498157786
GPS BIIR-3  (PRN 11)    
1 25933U 99055A   19034.21255330 -.00000059  00000-0  00000+0 0  9992
2 25933  52.0430  51.6395 0163363 106.8393  69.3956  2.00562017141590
GPS BIIR-4  (PRN 20)    
1 26360U 00025A   19034.48473829 -.00000044  00000-0  00000+0 0  9994
2 26360  53.2807 130.0160 0042591 131.7316 287.2504  2.00563238137297
GPS BIIR-5  (PRN 28)    
1 26407U 00040A   19034.27023174 -.00000071  00000-0  00000+0 0  9994
2 26407  56.3456 321.8459 0196173 275.3289 324.0040  2.00561063135976
GPS BIIR-6  (PRN 14)    
1 26605U 00071A   19034.55518084  .00000029  00000-0  00000+0 0  9990
2 26605  55.0432 201.1975 0103155 248.7705 107.0586  2.00564044133574
GPS BIIR-8  (PRN 16)    
1 27663U 03005A   19034.61024653 -.00000068  00000-0  00000+0 0  9990
2 27663  56.4070 321.6014 0104183  29.5985 213.0702  2.00552881117331
GPS BIIR-9  (PRN 21)    
1 27704U 03010A   19034.49424130 -.00000040  00000-0  00000+0 0  9992
2 27704  54.2625  73.5321 0249227 275.0853 213.3578  2.00548717116138
GPS BIIR-10 (PRN 22)    
1 28129U 03058A   19034.06171751 -.00000049  00000-0  00000+0 0  9996
2 28129  53.0930 132.8443 0073685 278.0709  81.0944  2.00573102110829
GPS BIIR-11 (PRN 19)    
1 28190U 04009A   19034.29434983 -.00000077  00000-0  00000+0 0  9996
2 28190  56.2436  22.4028 0091495  76.3475  91.3430  2.00570416109001
GPS BIIR-12 (PRN 23)    
1 28361U 04023A   19033.68072899  .00000024  00000-0  00000+0 0  9999
2 28361  54.0529 195.7382 0129245 228.7391 128.3304  2.00566192107074
GPS BIIR-13 (PRN 02)    
1 28474U 04045A   19034.12881946 -.00000040  00000-0  00000+0 0  9998
2 28474  54.6238  73.2492 0190390 258.1513  66.6719  2.00567111104451
GPS BIIRM-1 (PRN 17)    
1 28874U 05038A   19034.11264556 -.00000079  00000-0  00000+0 0  9998
2 28874  56.3734  19.7471 0132222 261.1259 159.5496  2.00562630 97858
GPS BIIRM-2 (PRN 31)    
1 29486U 06042A   19034.62085797  .00000047  00000-0  00000+0 0  9992
2 29486  55.0598 258.3929 0092731 357.2373 346.7658  2.00577124 90571
GPS BIIRM-3 (PRN 12)    
1 29601U 06052A   19034.08545484 -.00000070  00000-0  00000+0 0  9993
2 29601  56.3858 320.5384 0071974  58.0199 302.6973  2.00560366 89487
GPS BIIRM-4 (PRN 15)    
1 32260U 07047A   19034.39862150  .00000012  00000-0  00000+0 0  9994
2 32260  53.1763 191.5207 0110686  42.7742 318.0406  2.00567784 82868
GPS BIIRM-5 (PRN 29)    
1 32384U 07062A   19034.43835549 -.00000078  00000-0  00000+0 0  9998
2 32384  56.4541  20.3626 0004337  80.8531  85.3604  2.00576533 81600
GPS BIIRM-6 (PRN 07)    
1 32711U 08012A   19033.80781989  .00000050  00000-0  00000+0 0  9995
2 32711  54.7977 257.6471 0123168 218.8402 140.3403  2.00570524 79773
GPS BIIRM-8 (PRN 05)    
1 35752U 09043A   19034.19632873 -.00000045  00000-0  00000+0 0  9993
2 35752  54.3837 135.3367 0054043  39.3357 267.1866  2.00569513 69369
GPS BIIF-1  (PRN 25)    
1 36585U 10022A   19034.36807661 -.00000063  00000-0  00000+0 0  9995
2 36585  55.6683 316.9230 0079603  47.8161 129.2702  2.00553849 63613
GPS BIIF-2  (PRN 01)    
1 37753U 11036A   19034.50743956 -.00000034  00000-0  00000+0 0  9999
2 37753  55.8211  77.0372 0081900  37.9500 323.4559  2.00565554 55303
GPS BIIF-3  (PRN 24)    
1 38833U 12053A   19033.99067352  .00000051  00000-0  00000+0 0  9998
2 38833  53.8311 253.9713 0080108  32.3687 328.1899  2.00556663 46366
GPS BIIF-4  (PRN 27)    
1 39166U 13023A   19033.35592480 -.00000083  00000-0  00000+0 0  9997
2 39166  56.0612  16.5976 0065169  22.5392 337.7488  2.00568751 41886
GPS BIIF-5  (PRN 30)    
1 39533U 14008A   19033.85104976  .00000045  00000-0  00000+0 0  9990
2 39533  53.9669 259.3570 0036614 190.4297 169.5671  2.00568303 36254
GPS BIIF-6  (PRN 06)    
1 39741U 14026A   19034.13603843 -.00000036  00000-0  00000+0 0  9991
2 39741  55.8020  76.5770 0016390 289.1950  70.7012  2.00550632 34547
GPS BIIF-7  (PRN 09)    
1 40105U 14045A   19034.22212088  .00000022  00000-0  00000+0 0  9999
2 40105  54.5793 195.9467 0012478  99.1907 260.9177  2.00555370 32995
GPS BIIF-8  (PRN 03)    
1 40294U 14068A   19034.09220516 -.00000045  00000-0  00000+0 0  9999
2 40294  55.1356 136.7893 0017554  31.3262 328.7719  2.00573492 31218
GPS BIIF-9  (PRN 26)    
1 40534U 15013A   19034.23690552 -.00000063  00000-0  00000+0 0  9994
2 40534  54.6007 315.4105 0035905   2.8911 357.1594  2.00549750 28288
GPS BIIF-10  (PRN 08)   
1 40730U 15033A   19033.89016537 -.00000084  00000-0  00000+0 0  9993
2 40730  55.5880  15.9772 0043037 336.4395  23.3651  2.00562051 26030
GPS BIIF-11  (PRN 10)   
1 41019U 15062A   19034.44092393 -.00000041  00000-0  00000+0 0  9995
2 41019  55.1382 136.5866 0043822 204.4469 155.3414  2.00564661 23866
GPS BIIF-12  (PRN 32)   
1 41328U 16007A   19034.03614011  .00000024  00000-0  00000+0 0  9990
2 41328  54.8255 196.3074 0026528 213.8786 145.9206  2.00554263 21914
